CTC2_L_00355001-01
1 57687U 26460VN  26037.47795139  .00000000  00000+0  00000-0 0  9993
2 57687  60.0000   0.0000 0000000   0.0000   0.0000 13.29142284    18
CTC2_L_00355001-02
1 57688U 25889LI  26037.47795139  .00000000  00000+0  00000-0 0  9998
2 57688  60.0000   0.0000 0000000   0.0000  90.0000 13.29142284    18
CTC2_L_00355001-03
1 57689U 25619DL  26037.47795139  .00000000  00000+0  00000-0 0  9990
2 57689  60.0000   0.0000 0000000   0.0000 180.0000 13.29142284    19
CTC2_L_00355001-04
1 57690U 25020PR  26037.47795139  .00000000  00000+0  00000-0 0  9998
2 57690  60.0000   0.0000 0000000   0.0000 270.0000 13.29142284    11
CTC2_L_00355002-01
1 57691U 23184AW  26037.47795139  .00000000  00000+0  00000-0 0  9998
2 57691  60.0000  12.0000 0000000   0.0000  12.0000 13.29142284    19
CTC2_L_00355002-02
1 57692U 26838NV  26037.47795139  .00000000  00000+0  00000-0 0  9998
2 57692  60.0000  12.0000 0000000   0.0000 102.0000 13.29142284    10
CTC2_L_00355002-03
1 57693U 25229PW  26037.47795139  .00000000  00000+0  00000-0 0  9992
2 57693  60.0000  12.0000 0000000   0.0000 192.0000 13.29142284    10
CTC2_L_00355002-04
1 57694U 24692BT  26037.47795139  .00000000  00000+0  00000-0 0  9996
2 57694  60.0000  12.0000 0000000   0.0000 282.0000 13.29142284    11
CTC2_L_00355003-01
1 57695U 26011DV  26037.47795139  .00000000  00000+0  00000-0 0  9994
2 57695  60.0000  24.0000 0000000   0.0000  24.0000 13.29142284    19
CTC2_L_00355003-02
1 57696U 24561AS  26037.47795139  .00000000  00000+0  00000-0 0  9993
2 57696  60.0000  24.0000 0000000   0.0000 114.0000 13.29142284    10
CTC2_L_00355003-03
1 57697U 22844SC  26037.47795139  .00000000  00000+0  00000-0 0  9996
2 57697  60.0000  24.0000 0000000   0.0000 204.0000 13.29142284    11
CTC2_L_00355003-04
1 57698U 22817Z   26037.47795139  .00000000  00000+0  00000-0 0  9997
2 57698  60.0000  24.0000 0000000   0.0000 294.0000 13.29142284    11
CTC2_L_00355004-01
1 57699U 23063WE  26037.47795139  .00000000  00000+0  00000-0 0  9992
2 57699  60.0000  36.0000 0000000   0.0000  36.0000 13.29142284    19
CTC2_L_00355004-02
1 57700U 22864RJ  26037.47795139  .00000000  00000+0  00000-0 0  9993
2 57700  60.0000  36.0000 0000000   0.0000 126.0000 13.29142284    12
CTC2_L_00355004-03
1 57701U 25526BP  26037.47795139  .00000000  00000+0  00000-0 0  9992
2 57701  60.0000  36.0000 0000000   0.0000 216.0000 13.29142284    13
CTC2_L_00355004-04
1 57702U 22477WA  26037.47795139  .00000000  00000+0  00000-0 0  9995
2 57702  60.0000  36.0000 0000000   0.0000 306.0000 13.29142284    14
CTC2_L_00355005-01
1 57703U 24736GV  26037.47795139  .00000000  00000+0  00000-0 0  9996
2 57703  60.0000  48.0000 0000000   0.0000  48.0000 13.29142284    11
CTC2_L_00355005-02
1 57704U 24941LK  26037.47795139  .00000000  00000+0  00000-0 0  9995
2 57704  60.0000  48.0000 0000000   0.0000 138.0000 13.29142284    12
CTC2_L_00355005-03
1 57705U 23872ZB  26037.47795139  .00000000  00000+0  00000-0 0  9998
2 57705  60.0000  48.0000 0000000   0.0000 228.0000 13.29142284    13
CTC2_L_00355005-04
1 57706U 22257VL  26037.47795139  .00000000  00000+0  00000-0 0  9995
2 57706  60.0000  48.0000 0000000   0.0000 318.0000 13.29142284    14
CTC2_L_00355006-01
1 57707U 22946YV  26037.47795139  .00000000  00000+0  00000-0 0  9991
2 57707  60.0000  60.0000 0000000   0.0000  60.0000 13.29142284    13
CTC2_L_00355006-02
1 57708U 23581BS  26037.47795139  .00000000  00000+0  00000-0 0  9998
2 57708  60.0000  60.0000 0000000   0.0000 150.0000 13.29142284    14
CTC2_L_00355006-03
1 57709U 26305I   26037.47795139  .00000000  00000+0  00000-0 0  9996
2 57709  60.0000  60.0000 0000000   0.0000 240.0000 13.29142284    15
CTC2_L_00355006-04
1 57710U 23017VM  26037.47795139  .00000000  00000+0  00000-0 0  9995
2 57710  60.0000  60.0000 0000000   0.0000 330.0000 13.29142284    17
CTC2_L_00355007-01
1 57711U 24090SP  26037.47795139  .00000000  00000+0  00000-0 0  9998
2 57711  60.0000  72.0000 0000000   0.0000  72.0000 13.29142284    14
CTC2_L_00355007-02
1 57712U 25480FY  26037.47795139  .00000000  00000+0  00000-0 0  9993
2 57712  60.0000  72.0000 0000000   0.0000 162.0000 13.29142284    15
CTC2_L_00355007-03
1 57713U 23313YU  26037.47795139  .00000000  00000+0  00000-0 0  9997
2 57713  60.0000  72.0000 0000000   0.0000 252.0000 13.29142284    16
CTC2_L_00355007-04
1 57714U 24283O   26037.47795139  .00000000  00000+0  00000-0 0  9995
2 57714  60.0000  72.0000 0000000   0.0000 342.0000 13.29142284    17
CTC2_L_00355008-01
1 57715U 25921AT  26037.47795139  .00000000  00000+0  00000-0 0  9996
2 57715  60.0000  84.0000 0000000   0.0000  84.0000 13.29142284    14
CTC2_L_00355008-02
1 57716U 24667MR  26037.47795139  .00000000  00000+0  00000-0 0  9993
2 57716  60.0000  84.0000 0000000   0.0000 174.0000 13.29142284    15
CTC2_L_00355008-03
1 57717U 22934OE  26037.47795139  .00000000  00000+0  00000-0 0  9999
2 57717  60.0000  84.0000 0000000   0.0000 264.0000 13.29142284    16
CTC2_L_00355008-04
1 57718U 26177OB  26037.47795139  .00000000  00000+0  00000-0 0  9993
2 57718  60.0000  84.0000 0000000   0.0000 354.0000 13.29142284    17
CTC2_L_00355009-01
1 57719U 25009PE  26037.47795139  .00000000  00000+0  00000-0 0  9997
2 57719  60.0000  96.0000 0000000   0.0000  96.0000 13.29142284    14
CTC2_L_00355009-02
1 57720U 23293EF  26037.47795139  .00000000  00000+0  00000-0 0  9992
2 57720  60.0000  96.0000 0000000   0.0000 186.0000 13.29142284    16
CTC2_L_00355009-03
1 57721U 26840PR  26037.47795139  .00000000  00000+0  00000-0 0  9994
2 57721  60.0000  96.0000 0000000   0.0000 276.0000 13.29142284    17
CTC2_L_00355009-04
1 57722U 25553AD  26037.47795139  .00000000  00000+0  00000-0 0  9995
2 57722  60.0000  96.0000 0000000   0.0000   6.0000 13.29142284    19
CTC2_L_00355010-01
1 57723U 23253GK  26037.47795139  .00000000  00000+0  00000-0 0  9991
2 57723  60.0000 108.0000 0000000   0.0000 108.0000 13.29142284    17
CTC2_L_00355010-02
1 57724U 26569DE  26037.47795139  .00000000  00000+0  00000-0 0  9995
2 57724  60.0000 108.0000 0000000   0.0000 198.0000 13.29142284    17
CTC2_L_00355010-03
1 57725U 22452GA  26037.47795139  .00000000  00000+0  00000-0 0  9993
2 57725  60.0000 108.0000 0000000   0.0000 288.0000 13.29142284    18
CTC2_L_00355010-04
1 57726U 26880ML  26037.47795139  .00000000  00000+0  00000-0 0  9993
2 57726  60.0000 108.0000 0000000   0.0000  18.0000 13.29142284    10
CTC2_L_00355011-01
1 57727U 22879UP  26037.47795139  .00000000  00000+0  00000-0 0  9998
2 57727  60.0000 120.0000 0000000   0.0000 120.0000 13.29142284    19
CTC2_L_00355011-02
1 57728U 22070AY  26037.47795139  .00000000  00000+0  00000-0 0  9992
2 57728  60.0000 120.0000 0000000   0.0000 210.0000 13.29142284    10
CTC2_L_00355011-03
1 57729U 25694GH  26037.47795139  .00000000  00000+0  00000-0 0  9998
2 57729  60.0000 120.0000 0000000   0.0000 300.0000 13.29142284    11
CTC2_L_00355011-04
1 57730U 24479LY  26037.47795139  .00000000  00000+0  00000-0 0  9990
2 57730  60.0000 120.0000 0000000   0.0000  30.0000 13.29142284    13
CTC2_L_00355012-01
1 57731U 25353KU  26037.47795139  .00000000  00000+0  00000-0 0  9993
2 57731  60.0000 132.0000 0000000   0.0000 132.0000 13.29142284    10
CTC2_L_00355012-02
1 57732U 25230BF  26037.47795139  .00000000  00000+0  00000-0 0  9998
2 57732  60.0000 132.0000 0000000   0.0000 222.0000 13.29142284    11
CTC2_L_00355012-03
1 57733U 23041SW  26037.47795139  .00000000  00000+0  00000-0 0  9997
2 57733  60.0000 132.0000 0000000   0.0000 312.0000 13.29142284    12
CTC2_L_00355012-04
1 57734U 22224SR  26037.47795139  .00000000  00000+0  00000-0 0  9990
2 57734  60.0000 132.0000 0000000   0.0000  42.0000 13.29142284    13
CTC2_L_00355013-01
1 57735U 23032OA  26037.47795139  .00000000  00000+0  00000-0 0  9999
2 57735  60.0000 144.0000 0000000   0.0000 144.0000 13.29142284    10
CTC2_L_00355013-02
1 57736U 24775GP  26037.47795139  .00000000  00000+0  00000-0 0  9995
2 57736  60.0000 144.0000 0000000   0.0000 234.0000 13.29142284    11
CTC2_L_00355013-03
1 57737U 25927HI  26037.47795139  .00000000  00000+0  00000-0 0  9996
2 57737  60.0000 144.0000 0000000   0.0000 324.0000 13.29142284    12
CTC2_L_00355013-04
1 57738U 25261PL  26037.47795139  .00000000  00000+0  00000-0 0  9998
2 57738  60.0000 144.0000 0000000   0.0000  54.0000 13.29142284    13
CTC2_L_00355014-01
1 57739U 25957OQ  26037.47795139  .00000000  00000+0  00000-0 0  9991
2 57739  60.0000 156.0000 0000000   0.0000 156.0000 13.29142284    10
CTC2_L_00355014-02
1 57740U 22172PV  26037.47795139  .00000000  00000+0  00000-0 0  9999
2 57740  60.0000 156.0000 0000000   0.0000 246.0000 13.29142284    12
CTC2_L_00355014-03
1 57741U 23493IE  26037.47795139  .00000000  00000+0  00000-0 0  9997
2 57741  60.0000 156.0000 0000000   0.0000 336.0000 13.29142284    13
CTC2_L_00355014-04
1 57742U 26492OZ  26037.47795139  .00000000  00000+0  00000-0 0  9990
2 57742  60.0000 156.0000 0000000   0.0000  66.0000 13.29142284    14
CTC2_L_00355015-01
1 57743U 22283NS  26037.47795139  .00000000  00000+0  00000-0 0  9995
2 57743  60.0000 168.0000 0000000   0.0000 168.0000 13.29142284    11
CTC2_L_00355015-02
1 57744U 23850C   26037.47795139  .00000000  00000+0  00000-0 0  9997
2 57744  60.0000 168.0000 0000000   0.0000 258.0000 13.29142284    12
CTC2_L_00355015-03
1 57745U 24961EM  26037.47795139  .00000000  00000+0  00000-0 0  9992
2 57745  60.0000 168.0000 0000000   0.0000 348.0000 13.29142284    13
CTC2_L_00355015-04
1 57746U 26481WZ  26037.47795139  .00000000  00000+0  00000-0 0  9992
2 57746  60.0000 168.0000 0000000   0.0000  78.0000 13.29142284    14
CTC2_L_00355016-01
1 57747U 23213ZP  26037.47795139  .00000000  00000+0  00000-0 0  9993
2 57747  60.0000 180.0000 0000000   0.0000 180.0000 13.29142284    13
CTC2_L_00355016-02
1 57748U 26802EL  26037.47795139  .00000000  00000+0  00000-0 0  9991
2 57748  60.0000 180.0000 0000000   0.0000 270.0000 13.29142284    14
